{
  "norad_id": 43182,
  "name": "LEMUR-2-JIN-LUEN",
  "history": [
    {
      "epoch": "2026-03-28T19:00:14.090400Z",
      "apogee_km": 300.5330119630753,
      "perigee_km": 287.3643164875939,
      "latitude_deg": 4.921748862729355e-05,
      "longitude_deg": -91.25451537652911,
      "height_km": 302.2998742494791,
      "semi_major_axis_km": 6672.085664225334,
      "eccentricity": 0.00098685,
      "inclination_deg": 97.5392,
      "raan_deg": 20.0114,
      "arg_perigee_deg": 141.836,
      "mean_anomaly_deg": 218.3615,
      "mean_motion_rev_day": 15.92980067
    },
    {
      "epoch": "2026-03-30T05:39:21.134592Z",
      "apogee_km": 294.7077959171638,
      "perigee_km": 281.13623304839894,
      "latitude_deg": -2.937522870915465e-05,
      "longitude_deg": 109.155239571495,
      "height_km": 296.6035136987944,
      "semi_major_axis_km": 6666.059014482781,
      "eccentricity": 0.00101796,
      "inclination_deg": 97.5402,
      "raan_deg": 21.6236,
      "arg_perigee_deg": 144.2032,
      "mean_anomaly_deg": 215.9927,
      "mean_motion_rev_day": 15.95140827
    },
    {
      "epoch": "2026-03-30T07:09:41.076576Z",
      "apogee_km": 294.42169573870524,
      "perigee_km": 280.7801297854803,
      "latitude_deg": 4.547415651653844e-05,
      "longitude_deg": 86.58040788491282,
      "height_km": 296.2784513233358,
      "semi_major_axis_km": 6665.7379127620925,
      "eccentricity": 0.00102326,
      "inclination_deg": 97.54,
      "raan_deg": 21.6937,
      "arg_perigee_deg": 143.7423,
      "mean_anomaly_deg": 216.4548,
      "mean_motion_rev_day": 15.9525609
    },
    {
      "epoch": "2026-03-30T19:12:07.572096Z",
      "apogee_km": 292.23526885652427,
      "perigee_km": 278.29729494370804,
      "latitude_deg": -2.3111884474719454e-05,
      "longitude_deg": -93.96307420696947,
      "height_km": 294.1321622974974,
      "semi_major_axis_km": 6663.403281900116,
      "eccentricity": 0.00104586,
      "inclination_deg": 97.5402,
      "raan_deg": 22.2551,
      "arg_perigee_deg": 144.6935,
      "mean_anomaly_deg": 215.5035,
      "mean_motion_rev_day": 15.96094549
    },
    {
      "epoch": "2026-03-31T13:15:05.874048Z",
      "apogee_km": 288.9141812653943,
      "perigee_km": 274.89213271886365,
      "latitude_deg": -1.2224445042071534e-05,
      "longitude_deg": -4.60426722198195,
      "height_km": 290.90681650523305,
      "semi_major_axis_km": 6660.040156992129,
      "eccentricity": 0.0010527,
      "inclination_deg": 97.5405,
      "raan_deg": 23.0981,
      "arg_perigee_deg": 146.1541,
      "mean_anomaly_deg": 214.0409,
      "mean_motion_rev_day": 15.97303673
    }
  ]
}